NORAD_CAT_ID,OBJECT_NAME,OBJECT_TYPE,EPOCH,MEAN_MOTION,ECCENTRICITY,INCLINATION,RA_OF_ASC_NODE,ARG_OF_PERICENTER,MEAN_ANOMALY,BSTAR,MEAN_MOTION_DOT,MEAN_MOTION_DDOT,TLE_LINE0,TLE_LINE1,TLE_LINE2,SEMIMAJOR_AXIS,PERIOD,APOGEE,PERIGEE,DECAYED
49142.0,STARLINK-3042,PAYLOAD,2023-07-11 10:36:41,14.98333905,0.0003581,69.9989,185.8364,268.9435,91.1314,3.037e-05,2.69e-06,0.0,0 STARLINK-3042,1 49142U 21082N   23192.44215006  .00000269  00000-0  30370-4 0  9996,2 49142  69.9989 185.8364 0003581 268.9435  91.1314 14.98333905101333,6950.181,96.107,574.535,569.557,0.0
49142.0,STARLINK-3042,PAYLOAD,2023-07-12 17:03:15,14.98316062,0.0003432,69.9994,182.6382,271.76,88.3165,0.0003043,3.538e-05,0.0,0 STARLINK-3042,1 49142U 21082N   23193.71059620  .00003538  00000-0  30430-3 0  9993,2 49142  69.9994 182.6382 0003432 271.7600  88.3165 14.98316062101523,6950.236,96.108,574.486,569.716,0.0
49142.0,STARLINK-3042,PAYLOAD,2023-07-13 17:05:15,14.98330692,0.0003525,69.9991,180.1133,268.3219,91.7536,3.0071e-05,2.66e-06,0.0,0 STARLINK-3042,1 49142U 21082N   23194.71199056  .00000266  00000-0  30071-4 0  9999,2 49142  69.9991 180.1133 0003525 268.3219  91.7536 14.98330692101679,6950.191,96.107,574.506,569.606,0.0
49142.0,STARLINK-3042,PAYLOAD,2023-07-15 01:07:56,14.98335738,0.0003511,69.9992,176.7471,268.5844,91.4913,9.3396e-05,1.022e-05,0.0,0 STARLINK-3042,1 49142U 21082N   23196.04718499  .00001022  00000-0  93396-4 0  9995,2 49142  69.9992 176.7471 0003511 268.5844  91.4913 14.98335738101871,6950.175,96.107,574.48,569.6,0.0
49142.0,STARLINK-3042,PAYLOAD,2023-07-16 04:22:14,14.98327776,0.0003375,69.9996,173.8859,269.3531,90.7241,-1.3714e-05,-2.57e-06,0.0,0 STARLINK-3042,1 49142U 21082N   23197.18211105 -.00000257  00000-0 -13714-4 0  9990,2 49142  69.9996 173.8859 0003375 269.3531  90.7241 14.98327776102042,6950.2,96.107,574.41,569.719,0.0
49142.0,STARLINK-3042,PAYLOAD,2023-07-17 09:12:39,14.98333428,0.0003316,69.9997,170.8564,269.0467,91.0312,-1.1911e-05,-2.35e-06,0.0,0 STARLINK-3042,1 49142U 21082N   23198.38378722 -.00000235  00000-0 -11911-4 0  9995,2 49142  69.9997 170.8564 0003316 269.0467  91.0312 14.98333428102227,6950.182,96.107,574.352,569.743,0.0
49142.0,STARLINK-3042,PAYLOAD,2023-07-19 02:52:08,14.98330703,0.0003299,69.9996,166.4802,269.8525,90.2256,3.1439e-05,2.82e-06,0.0,0 STARLINK-3042,1 49142U 21082N   23200.11954752  .00000282  00000-0  31439-4 0  9990,2 49142  69.9996 166.4802 0003299 269.8525  90.2256 14.98330703102484,6950.191,96.107,574.349,569.763,0.0
49142.0,STARLINK-3042,PAYLOAD,2023-07-20 23:43:54,14.98327299,0.0003101,70.0001,161.7684,267.6966,92.3838,1.8297e-05,1.25e-06,0.0,0 STARLINK-3042,1 49142U 21082N   23201.98883008  .00000125  00000-0  18297-4 0  9994,2 49142  70.0001 161.7684 0003101 267.6966  92.3838 14.98327299102763,6950.201,96.107,574.222,569.911,0.0
49142.0,STARLINK-3042,PAYLOAD,2023-07-21 07:44:34,14.98332946,0.0003217,69.9999,160.9266,266.242,93.8371,6.4032e-05,6.71e-06,0.0,0 STARLINK-3042,1 49142U 21082N   23202.32262512  .00000671  00000-0  64032-4 0  9998,2 49142  69.9999 160.9266 0003217 266.2420  93.8371 14.98332946102810,6950.184,96.107,574.285,569.813,0.0
49142.0,STARLINK-3042,PAYLOAD,2023-07-23 23:49:57,14.98326263,0.0002671,70.0017,154.1963,248.3734,111.7141,-2.376e-05,-3.76e-06,0.0,0 STARLINK-3042,1 49142U 21082N   23204.99303034 -.00000376  00000-0 -23760-4 0  9995,2 49142  70.0017 154.1963 0002671 248.3734 111.7141 14.98326263103210,6950.204,96.107,573.926,570.213,0.0
49142.0,STARLINK-3042,PAYLOAD,2023-07-25 07:52:38,14.98336313,0.0003045,70.0007,150.825,269.1874,90.8936,1.0347e-05,3e-07,0.0,0 STARLINK-3042,1 49142U 21082N   23206.32822371  .00000030  00000-0  10347-4 0  9996,2 49142  70.0007 150.8250 0003045 269.1874  90.8936 14.98336313103411,6950.173,96.107,574.155,569.922,0.0
49142.0,STARLINK-3042,PAYLOAD,2023-07-26 07:54:33,14.98404654,0.0005646,69.9964,148.2986,292.2679,67.7881,0.00084104,9.978e-05,0.0,0 STARLINK-3042,1 49142U 21082N   23207.32955135  .00009978  00000-0  84104-3 0  9993,2 49142  69.9964 148.2986 0005646 292.2679  67.7881 14.98404654103568,6949.962,96.102,575.751,567.903,0.0
49142.0,STARLINK-3042,PAYLOAD,2023-07-27 07:56:39,14.98347496,0.0003138,69.9994,145.7782,266.3911,93.6889,0.00016856,1.92e-05,0.0,0 STARLINK-3042,1 49142U 21082N   23208.33100765  .00001920  00000-0  16856-3 0  9994,2 49142  69.9994 145.7782 0003138 266.3911  93.6889 14.98347496103715,6950.139,96.106,574.185,569.823,0.0
49142.0,STARLINK-3042,PAYLOAD,2023-07-27 19:09:37,14.98318437,0.000327,69.999,144.5986,269.0959,90.9826,-0.00011215,-1.431e-05,0.0,0 STARLINK-3042,1 49142U 21082N   23208.79835192 -.00001431  00000-0 -11215-3 0  9996,2 49142  69.9990 144.5986 0003270 269.0959  90.9826 14.98318437103784,6950.229,96.108,574.366,569.821,0.0
49142.0,STARLINK-3042,PAYLOAD,2023-07-28 06:22:33,14.98322842,0.0003745,70.0001,143.4218,274.0885,85.9846,-8.6207e-05,-1.121e-05,0.0,0 STARLINK-3042,1 49142U 21082N   23209.26567113 -.00001121  00000-0 -86207-4 0  9994,2 49142  70.0001 143.4218 0003745 274.0885  85.9846 14.98322842103856,6950.215,96.107,574.683,569.477,0.0
49142.0,STARLINK-3042,PAYLOAD,2023-07-29 01:36:09,14.98348844,0.0003073,70.0,141.4013,270.0498,90.0309,4.0206e-05,3.87e-06,0.0,0 STARLINK-3042,1 49142U 21082N   23210.06677172  .00000387  00000-0  40206-4 0  9991,2 49142  70.0000 141.4013 0003073 270.0498  90.0309 14.98348844103970,6950.135,96.106,574.135,569.864,0.0
49142.0,STARLINK-3042,PAYLOAD,2023-07-29 04:48:25,14.98274121,0.0002669,70.0,141.0646,277.263,82.8225,0.0014282,0.00016964,0.0,0 STARLINK-3042,1 49142U 21082N   23210.20029571  .00016964  00000-0  14282-2 0  9992,2 49142  70.0000 141.0646 0002669 277.2630  82.8225 14.98274121103999,6950.366,96.111,574.086,570.376,0.0
49142.0,STARLINK-3042,PAYLOAD,2023-07-29 12:49:06,14.9833794,0.0002674,70.0005,140.2227,274.4996,85.5857,-6.0597e-05,-8.16e-06,0.0,0 STARLINK-3042,1 49142U 21082N   23210.53409861 -.00000816  00000-0 -60597-4 0  9995,2 49142  70.0005 140.2227 0002674 274.4996  85.5857 14.98337940104047,6950.168,96.106,573.892,570.175,0.0
49142.0,STARLINK-3042,PAYLOAD,2023-07-30 01:38:11,14.98323557,0.0003157,69.9999,138.8762,270.5218,89.5579,0.00011306,1.256e-05,0.0,0 STARLINK-3042,1 49142U 21082N   23211.06818391  .00001256  00000-0  11306-3 0  9996,2 49142  69.9999 138.8762 0003157 270.5218  89.5579 14.98323557104127,6950.213,96.107,574.272,569.884,0.0
49142.0,STARLINK-3042,PAYLOAD,2023-07-30 04:50:26,14.98330963,0.0003183,69.9999,138.5392,270.3783,89.7011,0.00017461,1.991e-05,0.0,0 STARLINK-3042,1 49142U 21082N   23211.20169793  .00001991  00000-0  17461-3 0  9991,2 49142  69.9999 138.5392 0003183 270.3783  89.7011 14.98330963104141,6950.19,96.107,574.267,569.843,0.0
49142.0,STARLINK-3042,PAYLOAD,2023-07-30 19:15:39,14.98331112,0.000314,69.9998,137.0241,269.2113,90.8686,-0.00015565,-1.95e-05,0.0,0 STARLINK-3042,1 49142U 21082N   23211.80254619 -.00001950  00000-0 -15565-3 0  9999,2 49142  69.9998 137.0241 0003140 269.2113  90.8686 14.98331112104232,6950.189,96.107,574.237,569.872,0.0
49142.0,STARLINK-3042,PAYLOAD,2023-07-31 06:28:35,14.9833917,0.000317,69.9998,135.8464,270.0956,89.984,-4.6569e-05,-6.49e-06,0.0,0 STARLINK-3042,1 49142U 21082N   23212.26985697 -.00000649  00000-0 -46569-4 0  9990,2 49142  69.9998 135.8464 0003170 270.0956  89.9840 14.98339170104304,6950.165,96.106,574.233,569.826,0.0
49142.0,STARLINK-3042,PAYLOAD,2023-07-31 17:41:32,14.98324771,0.0003138,70.0002,134.6684,269.3383,90.7416,2.7703e-05,2.38e-06,0.0,0 STARLINK-3042,1 49142U 21082N   23212.73718405  .00000238  00000-0  27703-4 0  9994,2 49142  70.0002 134.6684 0003138 269.3383  90.7416 14.98324771104370,6950.209,96.107,574.255,569.893,0.0
49142.0,STARLINK-3042,PAYLOAD,2023-08-01 19:19:43,14.98301644,0.0003509,70.0,131.9755,270.4515,89.6242,-0.00013233,-1.671e-05,0.0,0 STARLINK-3042,1 49142U 21082N   23213.80536890 -.00001671  00000-0 -13233-3 0  9995,2 49142  70.0000 131.9755 0003509 270.4515  89.6242 14.98301644104535,6950.281,96.109,574.584,569.707,0.0
49142.0,STARLINK-3042,PAYLOAD,2023-08-02 11:21:03,14.98325102,0.000365,69.9992,130.2922,266.2202,93.8539,-1.152e-05,-2.31e-06,0.0,0 STARLINK-3042,1 49142U 21082N   23214.47295911 -.00000231  00000-0 -11520-4 0  9994,2 49142  69.9992 130.2922 0003650 266.2202  93.8539 14.98325102104635,6950.208,96.107,574.61,569.536,0.0
49142.0,STARLINK-3042,PAYLOAD,2023-08-03 01:46:14,14.9834201,0.0002904,70.0004,128.7777,258.6625,101.4208,0.00025434,2.944e-05,0.0,0 STARLINK-3042,1 49142U 21082N   23215.07378308  .00002944  00000-0  25434-3 0  9992,2 49142  70.0004 128.7777 0002904 258.6625 101.4208 14.98342010104723,6950.156,96.106,574.039,570.002,0.0
49142.0,STARLINK-3042,PAYLOAD,2023-08-04 01:48:17,14.98319448,0.0002887,70.0007,126.2539,257.2979,102.7858,0.00028149,3.266e-05,0.0,0 STARLINK-3042,1 49142U 21082N   23216.07519734  .00003266  00000-0  28149-3 0  9997,2 49142  70.0007 126.2539 0002887 257.2979 102.7858 14.98319448104872,6950.226,96.108,574.097,570.084,0.0
49142.0,STARLINK-3042,PAYLOAD,2023-08-05 01:50:17,14.98343685,0.0002857,70.0013,123.7308,243.3489,116.7377,-9.3978e-05,-1.214e-05,0.0,0 STARLINK-3042,1 49142U 21082N   23217.07658710 -.00001214  00000-0 -93978-4 0  9992,2 49142  70.0013 123.7308 0002857 243.3489 116.7377 14.98343685105023,6950.151,96.106,574.001,570.03,0.0
49142.0,STARLINK-3042,PAYLOAD,2023-08-06 03:28:24,14.98348009,0.0003034,70.0002,121.035,265.0324,95.0489,0.00016634,1.893e-05,0.0,0 STARLINK-3042,1 49142U 21082N   23218.14472830  .00001893  00000-0  16634-3 0  9992,2 49142  70.0002 121.0350 0003034 265.0324  95.0489 14.98348009105181,6950.137,96.106,574.111,569.894,0.0
49142.0,STARLINK-3042,PAYLOAD,2023-08-06 19:29:46,14.98325109,0.0002755,69.9992,119.3479,259.9763,100.1085,-6.2939e-05,-8.44e-06,0.0,0 STARLINK-3042,1 49142U 21082N   23218.81234793 -.00000844  00000-0 -62939-4 0  9997,2 49142  69.9992 119.3479 0002755 259.9763 100.1085 14.98325109105283,6950.208,96.107,573.988,570.158,0.0
